#cP2016  1 15  0  0  0.00000000      96 ORBIT IGb08 HLM  IGS
## 1879 432000.00000000   900.00000000 57402 0.0000000000000
+   31   G01G02G03G05G06G07G08G09G10G11G12G13G14G15G16G17G18
+        G19G20G21G22G23G24G25G26G27G28G29G30G31G32  0  0  0
+          0  0  0  0  0  0  0  0  0  0  0  0  0  0  0  0  0
+          0  0  0  0  0  0  0  0  0  0  0  0  0  0  0  0  0
+          0  0  0  0  0  0  0  0  0  0  0  0  0  0  0  0  0
++         2  3  2  2  2  2  2  2  4  2  2  2  3  2  2  2  2
++         3  2  2  2  2  2  2  2  2  0  3  2  2  2  0  0  0
++         0  0  0  0  0  0  0  0  0  0  0  0  0  0  0  0  0
++         0  0  0  0  0  0  0  0  0  0  0  0  0  0  0  0  0
++         0  0  0  0  0  0  0  0  0  0  0  0  0  0  0  0  0
%c G  cc GPS ccc cccc cccc cccc cccc ccccc ccccc ccccc ccccc
%c cc cc ccc ccc cccc cccc cccc cccc ccccc ccccc ccccc ccccc
%f  1.2500000  1.025000000  0.00000000000  0.000000000000000
%f  0.0000000  0.000000000  0.00000000000  0.000000000000000
%i    0    0    0    0      0      0      0      0         0
%i    0    0    0    0      0      0      0      0         0
/* RAPID ORBIT COMBINATION FROM WEIGHTED AVERAGE OF:        
/* cod emr esa gfz jpl ngs sio usn whu                      
/* REFERENCED TO IGS TIME (IGST) AND TO WEIGHTED MEAN POLE: 
/* PCV:IGS08_1879 OL/AL:FES2004  NONE     Y  ORB:CMB CLK:CMB
*  2016  1 15 20 15  0.00000000
PG01 -17529.571651  -4827.759061  19359.863011      9.218489  6  4  5  87       
PG02  14140.416665  22663.094884  -1659.992576    599.175220 10 12 10  83       
PG03 -18573.552181   5210.811013  18263.011924    -11.977437  6  6  5 107       
PG05   8753.045216  14162.199887 -20726.742780   -155.098938  7  7  4 118       
PG06   4546.693468  24115.213165  10176.518706    129.670997  2  8  5 103       
PG07 -10549.877850  11673.676498 -21207.160023    473.622341  7  7  6 105       
PG08 -24809.624687  -6083.398660  -7233.563412    -20.166663  7  7  5 126       
PG09 -20733.070174   9021.752164 -13961.068317     50.598462  6  7  6 110       
PG10   9575.447038 -23820.131644   6715.740180     49.446394 12 13 11 122       
PG11 -22288.060093  -6991.852670  12144.675643   -627.393227  7  8  4 112       
PG12  17062.249566  -1135.785900  20147.478963    361.176880  5  7  4 110       
PG13  18932.385145  12582.791248 -13796.350581   -178.677576  9  8  8 112       
PG14   5354.857444 -14559.048777  21795.489624      9.002685  5  8  5 118       
PG15  26241.749091   3006.812249  -4332.712511   -292.419539  8 10  8 106       
PG16  -6730.149410 -14356.109346 -21314.451787    -48.081288 10 10  6 110       
PG17  -6030.962390  14314.177534  21843.033905   -198.834366  7  8  3 108       
PG18  15866.958330 -20652.335483  -3882.705647    473.400369  7  8  4 111       
PG19  -6881.974283  13809.858505  21462.131295   -524.447296  6  8  2 126       
PG20  18006.833010  -2529.447136 -19538.725586    385.940102  6  6  5 110       
PG21   7594.828307 -15676.127702 -19241.873628   -505.391741  5  5  5 133       
PG22   -155.291967 -21920.786488  15136.990160    410.872232  6  9  5  85       
PG23 -26571.660618   1010.353136  -3154.975858   -155.125529  9  8  7 111       
PG24  18409.121925   7540.874495  17642.791795    -10.820317  6  8  6 114       
PG25  18737.353361 -14360.821506  11880.321689   -100.105794  2  6  5  97       
PG26    989.494251 -21627.581046 -15358.423661   -212.560496  7  5  6 117       
PG27 -17920.126184 -11664.002853 -15868.423050     53.713188  8  7  7 125       
PG28 -11132.099597  23064.565819   7549.415256 999999.999999
PG29  23017.253097  -5731.392220 -11891.069373    651.768472  5  8  6 129       
PG30  -3361.400310  20896.722272 -16000.385092     84.713361  6  6  5  82       
PG31  -5058.939912 -24427.430452   8687.167274    286.883698  3  9  6 118       
PG32 -13244.468915  -8104.199509  21444.946484     82.055859  5  5  5  95       
*  2016  1 15 20 30  0.00000000
PG01 -18455.692656  -6758.050777  17889.447677      9.219328  7  3  5  77       
PG02  13943.807533  22868.226752   1134.418705    599.175721 11 13 10 106       
PG03 -17570.109754   3283.123329  19649.896247    -11.982020  6  6  5 107       
PG05   7495.099747  16104.437675 -19758.922943   -155.095839  7  7  3 115       
PG06   3726.189151  23081.838821  12614.415725    129.676544  4  8  6 119       
PG07 -11756.704527   9501.442052 -21683.416567    473.621100  7  6  6 120       
PG08 -23822.820937  -6307.598343  -9860.507590    -20.167808  7  7  5 130       
PG09 -22195.781061   8792.741829 -11667.939419     50.605523  6  6  6 123       
PG10  10106.153338 -24215.515834   3947.700141     49.446265 12 13 11 123       
PG11 -23072.294968  -8147.877759   9851.391425   -627.395333  7  9  4 107       
PG12  15798.634691    888.599320  21178.161804    361.179086  6  8  4 106       
PG13  17245.190655  12534.610154 -15918.740264   -178.680058  9  8  8 110       
PG14   7750.112164 -14289.222494  21227.229352      9.001039  6  8  5 121       
PG15  25622.602615   3331.165306  -7009.082714   -292.421251  8 10  8  98       
PG16  -5320.853855 -16257.018567 -20286.536157    -48.078354 10 10  6 116       
PG17  -8414.512761  14116.034257  21145.029837   -198.835279  7  7  4 104       
PG18  15868.932094 -19889.061083  -6592.511249    473.403661  7  7  5 120       
PG19  -9314.163967  13504.353559  20771.978067   -524.447533  6  8  2 119       
PG20  17107.466899   -442.928164 -20484.907195    385.942226  6  5  5 112       
PG21   8936.053452 -13660.921044 -20172.948763   -505.393798  5  5  6 135       
PG22    862.293130 -23176.420823  13055.097117    410.868159  7  9  5  91       
PG23 -26785.264864    745.325194   -362.483645   -155.127300  9  8  7 110       
PG24  19234.146988   9283.459397  15862.320396    -10.822024  6  8  6 120       
PG25  18115.525609 -12971.541005  14211.934403   -100.111516  2  6  5 105       
PG26   1987.755797 -22938.924822 -13206.371978   -212.575401  6  5  6 114       
PG27 -16008.330694 -11782.971556 -17706.895117     53.716339  8  7  7 124       
PG28 -11625.975030  23485.352699   4747.170677 999999.999999
PG29  24219.073901  -5458.803801  -9364.638681    651.769555  5  8  6 124       
PG30  -4344.028112  19218.622660 -17776.522921     84.717602  5  5  5 103       
PG31  -4343.688029 -23518.610815  11269.283154    286.882173  3  9  6 112       
PG32 -11828.506085 -10136.129931  21456.364936     82.067224  4  6  5  90       
*  2016  1 15 20 45  0.00000000
PG01 -19383.817914  -8479.342713  16111.744599      9.220190  8  4  6  89       
PG02  13584.103764  22825.039719   3909.877111    599.175985 12 13 10  93       
PG03 -16604.335088   1183.595503  20698.769650    -11.986547  6  6  5  98       
PG05   6392.252522  17993.945047 -18451.467413   -155.092702  7  8  3 119       
PG06   2710.058471  21871.034609  14835.373076    129.682049  5  8  6 113       
PG07 -13091.426862   7371.030464 -21781.154019    473.619984  8  5  6 105       
PG08 -22561.020752  -6597.815931 -12317.415769    -20.169242  7  7  5 132       
PG09 -23398.101127   8625.417973  -9174.283468     50.612611  6  6  6 116       
PG10  10470.506426 -24355.423678   1111.521522     49.446099 12 13 11 127       
PG11 -23688.701078  -9103.607697   7384.975621   -627.397021  7  9  4 119       
PG12  14602.939038   3062.930150  21839.325931    361.181458  6  8  4 101       
PG13  15335.219617  12561.934667 -17768.623815   -178.682331  9  8  8 119       
PG14  10074.694338 -14149.733777  20300.876714      8.998727  6  8  5 118       
PG15  24728.951994   3713.221541  -9567.652836   -292.422913  9  9  8  93       
PG16  -4089.958798 -18120.516274 -18908.593959    -48.075332 11 10  7 110       
PG17 -10710.244163  14048.906990  20092.060454   -198.835478  7  6  4  87       
PG18  15775.352087 -18851.739162  -9185.207650    473.407142  7  6  6 127       
PG19 -11655.505372  13335.604746  19720.686691   -524.447396  6  8  3 122       
PG20  16273.443371   1763.126755 -21083.803455    385.944684  5  5  5 118       
PG21  10416.114831 -11637.617285 -20731.933718   -505.395057  4  6  6 133       
PG22   1715.207195 -24257.768053  10749.909939    410.864155  7  9  6  91       
PG23 -26699.569879    479.394861   2436.099145   -155.129090  9  8  7 113       
PG24  20026.363136  10800.527930  13810.193992    -10.823167  7  8  6 116       
PG25  17454.180934 -11326.848575  16295.273142   -100.117303  3  6  5 100       
PG26   2799.604186 -24071.916109 -10826.611306   -212.590290  6  5  6 123       
PG27 -13914.476240 -12014.249696 -19242.710494     53.719462  8  7  6 115       
PG28 -11932.066920  23658.302802   1863.939148 999999.999999
PG29  25137.845040  -5254.731748  -6676.558424    651.770492  5  8  5 129       
PG30  -5498.049019  17431.651810 -19245.970444     84.721772  4  5  5  69       
PG31  -3438.400370 -22406.599309  13654.783706    286.880638  2  8  6 106       
PG32 -10528.731973 -12214.669680  21096.689452     82.078659  3  6  5  98       
EOF
